ONEWEB-0012             
1 44057U 19010A   26001.21185455 -.00000040  00000+0 -13739-3 0  9992
2 44057  87.9034 262.0364 0001973  76.5081 283.6270 13.16593207329596
ONEWEB-0010             
1 44058U 19010B   26001.23719299  .00000118  00000+0  27547-3 0  9990
2 44058  87.9041 262.0229 0001361  59.8968 300.2297 13.16593513329645
ONEWEB-0008             
1 44059U 19010C   26001.26252171 -.00000029  00000+0 -10944-3 0  9991
2 44059  87.9042 262.0153 0001479  82.8359 277.2940 13.16593977329768
ONEWEB-0007             
1 44060U 19010D   26001.24109198  .00000104  00000+0  24259-3 0  9997
2 44060  87.9005 292.5441 0001864  65.2610 294.8714 13.15549966329425
ONEWEB-0006             
1 44061U 19010E   26001.24505513  .00000127  00000+0  30433-3 0  9995
2 44061  87.9013 292.4913 0001653  67.2314 292.8991 13.15548785329475
ONEWEB-0011             
1 44062U 19010F   26001.28940423 -.00000115  00000+0 -34040-3 0  9990
2 44062  87.9013 292.4913 0001483  77.7482 282.3814 13.15546847329474
ONEWEB-0013             
1 45131U 20008A   26001.28788722  .00000604  00000+0  17181-2 0  9996
2 45131  87.8508  86.5402 0002625  98.7551 261.3873 13.09446617284226
ONEWEB-0017             
1 45132U 20008B   26001.23494747  .00000299  00000+0  81975-3 0  9996
2 45132  87.8792  69.5562 0001473  98.7623 261.3671 13.10377020286085
ONEWEB-0020             
1 45133U 20008C   26001.20505067 -.00000508  00000+0 -14926-2 0  9998
2 45133  87.8792  69.5505 0001706 109.4111 250.7201 13.10371499286472
ONEWEB-0021             
1 45134U 20008D   26001.21999227 -.00000427  00000+0 -12609-2 0  9991
2 45134  87.8791  69.5754 0001740  99.2790 260.8534 13.10376520286780
ONEWEB-0023             
1 45136U 20008F   26001.23078748  .00000168  00000+0  44607-3 0  9995
2 45136  87.8791  69.5535 0001880 101.6600 258.4738 13.10377179286210
ONEWEB-0024             
1 45137U 20008G   26001.20339123 -.00000499  00000+0 -14653-2 0  9996
2 45137  87.8804  69.5336 0001674 101.1060 259.0256 13.10370942286371
ONEWEB-0025             
1 45138U 20008H   26001.22082145 -.00000444  00000+0 -13085-2 0  9996
2 45138  87.8800  69.5313 0002029 100.1367 259.9989 13.10376295286703
ONEWEB-0026             
1 45139U 20008J   26001.14492909  .00000237  00000+0  63418-3 0  9995
2 45139  87.8837  54.3248 0001587 100.1756 259.9551 13.11413737289211
ONEWEB-0028             
1 45140U 20008K   26001.17799359 -.00000267  00000+0 -78900-3 0  9996
2 45140  87.8833  54.3311 0002387  96.4133 263.7267 13.11417814286736
ONEWEB-0032             
1 45141U 20008L   26001.23660302  .00000402  00000+0  11149-2 0  9999
2 45141  87.8795  69.5558 0001896 101.8440 258.2900 13.10377101286434
