[{"OBJECT_NAME":"ONEWEB-0012","OBJECT_ID":"2019-010A","EPOCH":"2026-01-01T05:05:04.233120","MEAN_MOTION":13.16593207,"ECCENTRICITY":0.00019732,"INCLINATION":87.9034,"RA_OF_ASC_NODE":262.0364,"ARG_OF_PERICENTER":76.5081,"MEAN_ANOMALY":283.627,"EPHEMERIS_TYPE":0,"CLASSIFICATION_TYPE":"U","NORAD_CAT_ID":44057,"ELEMENT_SET_NO":999,"REV_AT_EPOCH":32959,"BSTAR":-0.00013738945,"MEAN_MOTION_DOT":-4.0e-7,"MEAN_MOTION_DDOT":0},{"OBJECT_NAME":"ONEWEB-0010","OBJECT_ID":"2019-010B","EPOCH":"2026-01-01T05:41:33.474336","MEAN_MOTION":13.16593513,"ECCENTRICITY":0.00013613,"INCLINATION":87.9041,"RA_OF_ASC_NODE":262.0229,"ARG_OF_PERICENTER":59.8968,"MEAN_ANOMALY":300.2297,"EPHEMERIS_TYPE":0,"CLASSIFICATION_TYPE":"U","NORAD_CAT_ID":44058,"ELEMENT_SET_NO":999,"REV_AT_EPOCH":32964,"BSTAR":0.00027547013,"MEAN_MOTION_DOT":1.18e-6,"MEAN_MOTION_DDOT":0},{"OBJECT_NAME":"ONEWEB-0008","OBJECT_ID":"2019-010C","EPOCH":"2026-01-01T06:18:01.875744","MEAN_MOTION":13.16593977,"ECCENTRICITY":0.00014797,"INCLINATION":87.9042,"RA_OF_ASC_NODE":262.0153,"ARG_OF_PERICENTER":82.8359,"MEAN_ANOMALY":277.294,"EPHEMERIS_TYPE":0,"CLASSIFICATION_TYPE":"U","NORAD_CAT_ID":44059,"ELEMENT_SET_NO":999,"REV_AT_EPOCH":32976,"BSTAR":-0.00010944175,"MEAN_MOTION_DOT":-2.9e-7,"MEAN_MOTION_DDOT":0},{"OBJECT_NAME":"ONEWEB-0007","OBJECT_ID":"2019-010D","EPOCH":"2026-01-01T05:47:10.347072","MEAN_MOTION":13.15549966,"ECCENTRICITY":0.00018642,"INCLINATION":87.9005,"RA_OF_ASC_NODE":292.5441,"ARG_OF_PERICENTER":65.261,"MEAN_ANOMALY":294.8714,"EPHEMERIS_TYPE":0,"CLASSIFICATION_TYPE":"U","NORAD_CAT_ID":44060,"ELEMENT_SET_NO":999,"REV_AT_EPOCH":32942,"BSTAR":0.0002425939,"MEAN_MOTION_DOT":1.04e-6,"MEAN_MOTION_DDOT":0},{"OBJECT_NAME":"ONEWEB-0006","OBJECT_ID":"2019-010E","EPOCH":"2026-01-01T05:52:52.763232","MEAN_MOTION":13.15548785,"ECCENTRICITY":0.00016539,"INCLINATION":87.9013,"RA_OF_ASC_NODE":292.4913,"ARG_OF_PERICENTER":67.2314,"MEAN_ANOMALY":292.8991,"EPHEMERIS_TYPE":0,"CLASSIFICATION_TYPE":"U","NORAD_CAT_ID":44061,"ELEMENT_SET_NO":999,"REV_AT_EPOCH":32947,"BSTAR":0.00030432789,"MEAN_MOTION_DOT":1.27e-6,"MEAN_MOTION_DDOT":0},{"OBJECT_NAME":"ONEWEB-0011","OBJECT_ID":"2019-010F","EPOCH":"2026-01-01T06:56:44.525472","MEAN_MOTION":13.15546847,"ECCENTRICITY":0.00014832,"INCLINATION":87.9013,"RA_OF_ASC_NODE":292.4913,"ARG_OF_PERICENTER":77.7482,"MEAN_ANOMALY":282.3814,"EPHEMERIS_TYPE":0,"CLASSIFICATION_TYPE":"U","NORAD_CAT_ID":44062,"ELEMENT_SET_NO":999,"REV_AT_EPOCH":32947,"BSTAR":-0.00034040383,"MEAN_MOTION_DOT":-1.15e-6,"MEAN_MOTION_DDOT":0},{"OBJECT_NAME":"ONEWEB-0013","OBJECT_ID":"2020-008A","EPOCH":"2026-01-01T06:54:33.455808","MEAN_MOTION":13.09446617,"ECCENTRICITY":0.00026258,"INCLINATION":87.8508,"RA_OF_ASC_NODE":86.5402,"ARG_OF_PERICENTER":98.7551,"MEAN_ANOMALY":261.3873,"EPHEMERIS_TYPE":0,"CLASSIFICATION_TYPE":"U","NORAD_CAT_ID":45131,"ELEMENT_SET_NO":999,"REV_AT_EPOCH":28422,"BSTAR":0.0017180675,"MEAN_MOTION_DOT":6.04e-6,"MEAN_MOTION_DDOT":0},{"OBJECT_NAME":"ONEWEB-0017","OBJECT_ID":"2020-008B","EPOCH":"2026-01-01T05:38:19.461408","MEAN_MOTION":13.1037702,"ECCENTRICITY":0.00014739,"INCLINATION":87.8792,"RA_OF_ASC_NODE":69.5562,"ARG_OF_PERICENTER":98.7623,"MEAN_ANOMALY":261.3671,"EPHEMERIS_TYPE":0,"CLASSIFICATION_TYPE":"U","NORAD_CAT_ID":45132,"ELEMENT_SET_NO":999,"REV_AT_EPOCH":28608,"BSTAR":0.00081974807,"MEAN_MOTION_DOT":2.99e-6,"MEAN_MOTION_DDOT":0},{"OBJECT_NAME":"ONEWEB-0020","OBJECT_ID":"2020-008C","EPOCH":"2026-01-01T04:55:16.377888","MEAN_MOTION":13.10371499,"ECCENTRICITY":0.00017067,"INCLINATION":87.8792,"RA_OF_ASC_NODE":69.5505,"ARG_OF_PERICENTER":109.4111,"MEAN_ANOMALY":250.7201,"EPHEMERIS_TYPE":0,"CLASSIFICATION_TYPE":"U","NORAD_CAT_ID":45133,"ELEMENT_SET_NO":999,"REV_AT_EPOCH":28647,"BSTAR":-0.0014926168,"MEAN_MOTION_DOT":-5.08e-6,"MEAN_MOTION_DDOT":0},{"OBJECT_NAME":"ONEWEB-0021","OBJECT_ID":"2020-008D","EPOCH":"2026-01-01T05:16:47.332128","MEAN_MOTION":13.1037652,"ECCENTRICITY":0.00017406,"INCLINATION":87.8791,"RA_OF_ASC_NODE":69.5754,"ARG_OF_PERICENTER":99.279,"MEAN_ANOMALY":260.8534,"EPHEMERIS_TYPE":0,"CLASSIFICATION_TYPE":"U","NORAD_CAT_ID":45134,"ELEMENT_SET_NO":999,"REV_AT_EPOCH":28678,"BSTAR":-0.001260858,"MEAN_MOTION_DOT":-4.27e-6,"MEAN_MOTION_DDOT":0},{"OBJECT_NAME":"ONEWEB-0023","OBJECT_ID":"2020-008F","EPOCH":"2026-01-01T05:32:20.038272","MEAN_MOTION":13.10377179,"ECCENTRICITY":0.00018807,"INCLINATION":87.8791,"RA_OF_ASC_NODE":69.5535,"ARG_OF_PERICENTER":101.66,"MEAN_ANOMALY":258.4738,"EPHEMERIS_TYPE":0,"CLASSIFICATION_TYPE":"U","NORAD_CAT_ID":45136,"ELEMENT_SET_NO":999,"REV_AT_EPOCH":28621,"BSTAR":0.00044606558,"MEAN_MOTION_DOT":1.68e-6,"MEAN_MOTION_DDOT":0},{"OBJECT_NAME":"ONEWEB-0024","OBJECT_ID":"2020-008G","EPOCH":"2026-01-01T04:52:53.002272","MEAN_MOTION":13.10370942,"ECCENTRICITY":0.00016744,"INCLINATION":87.8804,"RA_OF_ASC_NODE":69.5336,"ARG_OF_PERICENTER":101.106,"MEAN_ANOMALY":259.0256,"EPHEMERIS_TYPE":0,"CLASSIFICATION_TYPE":"U","NORAD_CAT_ID":45137,"ELEMENT_SET_NO":999,"REV_AT_EPOCH":28637,"BSTAR":-0.0014652805,"MEAN_MOTION_DOT":-4.99e-6,"MEAN_MOTION_DDOT":0},{"OBJECT_NAME":"ONEWEB-0025","OBJECT_ID":"2020-008H","EPOCH":"2026-01-01T05:17:58.973280","MEAN_MOTION":13.10376295,"ECCENTRICITY":0.00020291,"INCLINATION":87.88,"RA_OF_ASC_NODE":69.5313,"ARG_OF_PERICENTER":100.1367,"MEAN_ANOMALY":259.9989,"EPHEMERIS_TYPE":0,"CLASSIFICATION_TYPE":"U","NORAD_CAT_ID":45138,"ELEMENT_SET_NO":999,"REV_AT_EPOCH":28670,"BSTAR":-0.0013085398,"MEAN_MOTION_DOT":-4.44e-6,"MEAN_MOTION_DDOT":0},{"OBJECT_NAME":"ONEWEB-0026","OBJECT_ID":"2020-008J","EPOCH":"2026-01-01T03:28:41.873376","MEAN_MOTION":13.11413737,"ECCENTRICITY":0.00015877,"INCLINATION":87.8837,"RA_OF_ASC_NODE":54.3248,"ARG_OF_PERICENTER":100.1756,"MEAN_ANOMALY":259.9551,"EPHEMERIS_TYPE":0,"CLASSIFICATION_TYPE":"U","NORAD_CAT_ID":45139,"ELEMENT_SET_NO":999,"REV_AT_EPOCH":28921,"BSTAR":0.00063418368,"MEAN_MOTION_DOT":2.37e-6,"MEAN_MOTION_DDOT":0},{"OBJECT_NAME":"ONEWEB-0028","OBJECT_ID":"2020-008K","EPOCH":"2026-01-01T04:16:18.646176","MEAN_MOTION":13.11417814,"ECCENTRICITY":0.00023873,"INCLINATION":87.8833,"RA_OF_ASC_NODE":54.3311,"ARG_OF_PERICENTER":96.4133,"MEAN_ANOMALY":263.7267,"EPHEMERIS_TYPE":0,"CLASSIFICATION_TYPE":"U","NORAD_CAT_ID":45140,"ELEMENT_SET_NO":999,"REV_AT_EPOCH":28673,"BSTAR":-0.00078900318,"MEAN_MOTION_DOT":-2.67e-6,"MEAN_MOTION_DDOT":0},{"OBJECT_NAME":"ONEWEB-0032","OBJECT_ID":"2020-008L","EPOCH":"2026-01-01T05:40:42.500928","MEAN_MOTION":13.10377101,"ECCENTRICITY":0.00018965,"INCLINATION":87.8795,"RA_OF_ASC_NODE":69.5558,"ARG_OF_PERICENTER":101.844,"MEAN_ANOMALY":258.29,"EPHEMERIS_TYPE":0,"CLASSIFICATION_TYPE":"U","NORAD_CAT_ID":45141,"ELEMENT_SET_NO":999,"REV_AT_EPOCH":28643,"BSTAR":0.0011148992,"MEAN_MOTION_DOT":4.02e-6,"MEAN_MOTION_DDOT":0}]
